CCSDS_OMM_VERS = 2.0
CREATION_DATE  = 
ORIGINATOR     = 

OBJECT_NAME    = STARLINK-35825
OBJECT_ID      = 2025-268L
CENTER_NAME    = EARTH
REF_FRAME      = TEME
TIME_SYSTEM    = UTC
MEAN_ELEMENT_THEORY = SGP/SGP4

EPOCH          = 2025-12-09T06:00:02.000160
MEAN_MOTION    = 15.50572738
ECCENTRICITY   = .00020738
INCLINATION    = 43.0005
RA_OF_ASC_NODE = 141.5589
ARG_OF_PERICENTER = 261.7777
MEAN_ANOMALY   = 152.8947

EPHEMERIS_TYPE = 0
CLASSIFICATION_TYPE = U
NORAD_CAT_ID   = 66567
ELEMENT_SET_NO = 999
REV_AT_EPOCH   = 410
BSTAR          = -.85246422E-3
MEAN_MOTION_DOT = -.50025E-3
MEAN_MOTION_DDOT = 0

CCSDS_OMM_VERS = 2.0
CREATION_DATE  = 
ORIGINATOR     = 

OBJECT_NAME    = STARLINK-35803
OBJECT_ID      = 2025-268M
CENTER_NAME    = EARTH
REF_FRAME      = TEME
TIME_SYSTEM    = UTC
MEAN_ELEMENT_THEORY = SGP/SGP4

EPOCH          = 2025-12-09T06:00:02.000160
MEAN_MOTION    = 15.50566449
ECCENTRICITY   = .00020027
INCLINATION    = 43.0006
RA_OF_ASC_NODE = 141.5529
ARG_OF_PERICENTER = 259.8246
MEAN_ANOMALY   = 156.7641

EPHEMERIS_TYPE = 0
CLASSIFICATION_TYPE = U
NORAD_CAT_ID   = 66568
ELEMENT_SET_NO = 999
REV_AT_EPOCH   = 410
BSTAR          = -.59825962E-3
MEAN_MOTION_DOT = -.35267E-3
MEAN_MOTION_DDOT = 0

CCSDS_OMM_VERS = 2.0
CREATION_DATE  = 
ORIGINATOR     = 

OBJECT_NAME    = STARLINK-35835
OBJECT_ID      = 2025-268N
CENTER_NAME    = EARTH
REF_FRAME      = TEME
TIME_SYSTEM    = UTC
MEAN_ELEMENT_THEORY = SGP/SGP4

EPOCH          = 2025-12-09T06:00:02.000160
MEAN_MOTION    = 15.50565114
ECCENTRICITY   = .00020232
INCLINATION    = 43.0007
RA_OF_ASC_NODE = 141.5489
ARG_OF_PERICENTER = 259.7511
MEAN_ANOMALY   = 158.7528

EPHEMERIS_TYPE = 0
CLASSIFICATION_TYPE = U
NORAD_CAT_ID   = 66569
ELEMENT_SET_NO = 999
REV_AT_EPOCH   = 410
BSTAR          = -.54375788E-3
MEAN_MOTION_DOT = -.32097E-3
MEAN_MOTION_DDOT = 0

CCSDS_OMM_VERS = 2.0
CREATION_DATE  = 
ORIGINATOR     = 

OBJECT_NAME    = STARLINK-35834
OBJECT_ID      = 2025-268P
CENTER_NAME    = EARTH
REF_FRAME      = TEME
TIME_SYSTEM    = UTC
MEAN_ELEMENT_THEORY = SGP/SGP4

EPOCH          = 2025-12-09T06:00:02.000160
MEAN_MOTION    = 15.50562226
ECCENTRICITY   = .00017503
INCLINATION    = 43.0007
RA_OF_ASC_NODE = 141.5430
ARG_OF_PERICENTER = 270.9765
MEAN_ANOMALY   = 149.4437

EPHEMERIS_TYPE = 0
CLASSIFICATION_TYPE = U
NORAD_CAT_ID   = 66570
ELEMENT_SET_NO = 999
REV_AT_EPOCH   = 410
BSTAR          = -.41386322E-3
MEAN_MOTION_DOT = -.24531E-3
MEAN_MOTION_DDOT = 0

CCSDS_OMM_VERS = 2.0
CREATION_DATE  = 
ORIGINATOR     = 

OBJECT_NAME    = STARLINK-35836
OBJECT_ID      = 2025-268Q
CENTER_NAME    = EARTH
REF_FRAME      = TEME
TIME_SYSTEM    = UTC
MEAN_ELEMENT_THEORY = SGP/SGP4

EPOCH          = 2025-12-09T06:00:02.000160
MEAN_MOTION    = 15.50556273
ECCENTRICITY   = .00019333
INCLINATION    = 43.0008
RA_OF_ASC_NODE = 141.5393
ARG_OF_PERICENTER = 269.0005
MEAN_ANOMALY   = 153.3418

EPHEMERIS_TYPE = 0
CLASSIFICATION_TYPE = U
NORAD_CAT_ID   = 66571
ELEMENT_SET_NO = 999
REV_AT_EPOCH   = 410
BSTAR          = -.30184083E-3
MEAN_MOTION_DOT = -.17995E-3
MEAN_MOTION_DDOT = 0

CCSDS_OMM_VERS = 2.0
CREATION_DATE  = 
ORIGINATOR     = 

OBJECT_NAME    = STARLINK-35870
OBJECT_ID      = 2025-268R
CENTER_NAME    = EARTH
REF_FRAME      = TEME
TIME_SYSTEM    = UTC
MEAN_ELEMENT_THEORY = SGP/SGP4

EPOCH          = 2025-12-09T06:00:02.000160
MEAN_MOTION    = 15.50560188
ECCENTRICITY   = .00019135
INCLINATION    = 43.0006
RA_OF_ASC_NODE = 141.5352
ARG_OF_PERICENTER = 272.6668
MEAN_ANOMALY   = 151.5889

EPHEMERIS_TYPE = 0
CLASSIFICATION_TYPE = U
NORAD_CAT_ID   = 66572
ELEMENT_SET_NO = 999
REV_AT_EPOCH   = 410
BSTAR          = -.3756886E-3
MEAN_MOTION_DOT = -.22305E-3
MEAN_MOTION_DDOT = 0

CCSDS_OMM_VERS = 2.0
CREATION_DATE  = 
ORIGINATOR     = 

OBJECT_NAME    = STARLINK-35650
OBJECT_ID      = 2025-268S
CENTER_NAME    = EARTH
REF_FRAME      = TEME
TIME_SYSTEM    = UTC
MEAN_ELEMENT_THEORY = SGP/SGP4

EPOCH          = 2025-12-09T06:00:02.000160
MEAN_MOTION    = 15.50553635
ECCENTRICITY   = .00025178
INCLINATION    = 43.0008
RA_OF_ASC_NODE = 141.5288
ARG_OF_PERICENTER = 277.5962
MEAN_ANOMALY   = 148.6355

EPHEMERIS_TYPE = 0
CLASSIFICATION_TYPE = U
NORAD_CAT_ID   = 66573
ELEMENT_SET_NO = 999
REV_AT_EPOCH   = 410
BSTAR          = -.89953107E-3
MEAN_MOTION_DOT = -.52717E-3
MEAN_MOTION_DDOT = 0

CCSDS_OMM_VERS = 2.0
CREATION_DATE  = 
ORIGINATOR     = 

OBJECT_NAME    = STARLINK-35812
OBJECT_ID      = 2025-268T
CENTER_NAME    = EARTH
REF_FRAME      = TEME
TIME_SYSTEM    = UTC
MEAN_ELEMENT_THEORY = SGP/SGP4

EPOCH          = 2025-12-09T06:00:02.000160
MEAN_MOTION    = 15.50577654
ECCENTRICITY   = .00022871
INCLINATION    = 43.0007
RA_OF_ASC_NODE = 141.5247
ARG_OF_PERICENTER = 261.6182
MEAN_ANOMALY   = 166.4734

EPHEMERIS_TYPE = 0
CLASSIFICATION_TYPE = U
NORAD_CAT_ID   = 66574
ELEMENT_SET_NO = 999
REV_AT_EPOCH   = 410
BSTAR          = -.10899147E-2
MEAN_MOTION_DOT = -.63766E-3
MEAN_MOTION_DDOT = 0

CCSDS_OMM_VERS = 2.0
CREATION_DATE  = 
ORIGINATOR     = 

OBJECT_NAME    = STARLINK-35810
OBJECT_ID      = 2025-268U
CENTER_NAME    = EARTH
REF_FRAME      = TEME
TIME_SYSTEM    = UTC
MEAN_ELEMENT_THEORY = SGP/SGP4

EPOCH          = 2025-12-09T06:00:02.000160
MEAN_MOTION    = 15.50577055
ECCENTRICITY   = .00022609
INCLINATION    = 43.0008
RA_OF_ASC_NODE = 141.5196
ARG_OF_PERICENTER = 264.4167
MEAN_ANOMALY   = 165.5902

EPHEMERIS_TYPE = 0
CLASSIFICATION_TYPE = U
NORAD_CAT_ID   = 66575
ELEMENT_SET_NO = 999
REV_AT_EPOCH   = 410
BSTAR          = -.10451472E-2
MEAN_MOTION_DOT = -.61179E-3
MEAN_MOTION_DDOT = 0

CCSDS_OMM_VERS = 2.0
CREATION_DATE  = 
ORIGINATOR     = 

OBJECT_NAME    = STARLINK-35814
OBJECT_ID      = 2025-268V
CENTER_NAME    = EARTH
REF_FRAME      = TEME
TIME_SYSTEM    = UTC
MEAN_ELEMENT_THEORY = SGP/SGP4

EPOCH          = 2025-12-09T06:00:02.000160
MEAN_MOTION    = 15.50568985
ECCENTRICITY   = .00021922
INCLINATION    = 43.0007
RA_OF_ASC_NODE = 141.5150
ARG_OF_PERICENTER = 261.2472
MEAN_ANOMALY   = 170.6805

EPHEMERIS_TYPE = 0
CLASSIFICATION_TYPE = U
NORAD_CAT_ID   = 66576
ELEMENT_SET_NO = 999
REV_AT_EPOCH   = 410
BSTAR          = -.80225261E-3
MEAN_MOTION_DOT = -.4711E-3
MEAN_MOTION_DDOT = 0

CCSDS_OMM_VERS = 2.0
CREATION_DATE  = 
ORIGINATOR     = 

OBJECT_NAME    = STARLINK-35815
OBJECT_ID      = 2025-268W
CENTER_NAME    = EARTH
REF_FRAME      = TEME
TIME_SYSTEM    = UTC
MEAN_ELEMENT_THEORY = SGP/SGP4

EPOCH          = 2025-12-09T06:00:02.000160
MEAN_MOTION    = 15.50556938
ECCENTRICITY   = .00020745
INCLINATION    = 43.0008
RA_OF_ASC_NODE = 141.5098
ARG_OF_PERICENTER = 262.8711
MEAN_ANOMALY   = 170.9685

EPHEMERIS_TYPE = 0
CLASSIFICATION_TYPE = U
NORAD_CAT_ID   = 66577
ELEMENT_SET_NO = 999
REV_AT_EPOCH   = 410
BSTAR          = -.26538088E-3
MEAN_MOTION_DOT = -.15867E-3
MEAN_MOTION_DDOT = 0

CCSDS_OMM_VERS = 2.0
CREATION_DATE  = 
ORIGINATOR     = 

OBJECT_NAME    = STARLINK-35743
OBJECT_ID      = 2025-268X
CENTER_NAME    = EARTH
REF_FRAME      = TEME
TIME_SYSTEM    = UTC
MEAN_ELEMENT_THEORY = SGP/SGP4

EPOCH          = 2025-12-09T06:00:02.000160
MEAN_MOTION    = 15.50562633
ECCENTRICITY   = .00020571
INCLINATION    = 43.0008
RA_OF_ASC_NODE = 141.5051
ARG_OF_PERICENTER = 266.7230
MEAN_ANOMALY   = 169.0319

EPHEMERIS_TYPE = 0
CLASSIFICATION_TYPE = U
NORAD_CAT_ID   = 66578
ELEMENT_SET_NO = 999
REV_AT_EPOCH   = 410
BSTAR          = -.44736813E-3
MEAN_MOTION_DOT = -.26484E-3
MEAN_MOTION_DDOT = 0

