STARLINK-35825          
1 66567U 25268L   25343.25002315 -.00050025  00000+0 -85246-3 0  9999
2 66567  43.0005 141.5589 0002073 261.7777 152.8947 15.50572738  4100
STARLINK-35803          
1 66568U 25268M   25343.25002315 -.00035267  00000+0 -59826-3 0  9996
2 66568  43.0006 141.5529 0002002 259.8246 156.7641 15.50566449  4103
STARLINK-35835          
1 66569U 25268N   25343.25002315 -.00032097  00000+0 -54376-3 0  9990
2 66569  43.0007 141.5489 0002023 259.7511 158.7528 15.50565114  4101
STARLINK-35834          
1 66570U 25268P   25343.25002315 -.00024531  00000+0 -41386-3 0  9993
2 66570  43.0007 141.5430 0001750 270.9765 149.4437 15.50562226  4108
STARLINK-35836          
1 66571U 25268Q   25343.25002315 -.00017995  00000+0 -30184-3 0  9994
2 66571  43.0008 141.5393 0001933 269.0005 153.3418 15.50556273  4105
STARLINK-35870          
1 66572U 25268R   25343.25002315 -.00022305  00000+0 -37569-3 0  9990
2 66572  43.0006 141.5352 0001913 272.6668 151.5889 15.50560188  4104
STARLINK-35650          
1 66573U 25268S   25343.25002315 -.00052717  00000+0 -89953-3 0  9995
2 66573  43.0008 141.5288 0002517 277.5962 148.6355 15.50553635  4101
STARLINK-35812          
1 66574U 25268T   25343.25002315 -.00063766  00000+0 -10899-2 0  9994
2 66574  43.0007 141.5247 0002287 261.6182 166.4734 15.50577654  4104
STARLINK-35810          
1 66575U 25268U   25343.25002315 -.00061179  00000+0 -10451-2 0  9995
2 66575  43.0008 141.5196 0002260 264.4167 165.5902 15.50577055  4106
STARLINK-35814          
1 66576U 25268V   25343.25002315 -.00047110  00000+0 -80225-3 0  9992
2 66576  43.0007 141.5150 0002192 261.2472 170.6805 15.50568985  4105
STARLINK-35815          
1 66577U 25268W   25343.25002315 -.00015867  00000+0 -26538-3 0  9994
2 66577  43.0008 141.5098 0002074 262.8711 170.9685 15.50556938  4104
STARLINK-35743          
1 66578U 25268X   25343.25002315 -.00026484  00000+0 -44737-3 0  9993
2 66578  43.0008 141.5051 0002057 266.7230 169.0319 15.50562633  4106
